{
  "type": "FeatureCollection",
  "features": [
    {
      "type": "Feature",
      "properties": {
        "norad_id": 43246,
        "name": "BEIDOU-3 M10 (C30)",
        "group": "gnss",
        "lat": -34.78093292992606,
        "lon": 155.851454112632,
        "alt_km": 21541.71396261883,
        "timestamp": "2025-12-26T20:30:46.154451+00:00",
        "meta_object_name": "BEIDOU-3 M10 (C30)",
        "meta_object_id": "2018-029B",
        "meta_epoch": "2025-12-25T23:35:13.323840",
        "meta_mean_motion": 1.86229188,
        "meta_eccentricity": 0.00043665,
        "meta_inclination": 54.3511,
        "meta_ra_of_asc_node": 306.0337,
        "meta_arg_of_pericenter": 3.7555,
        "meta_mean_anomaly": 356.2576,
        "meta_ephemeris_type": 0,
        "meta_classification_type": "U",
        "meta_norad_cat_id": 43246,
        "meta_element_set_no": 999,
        "meta_rev_at_epoch": 5265,
        "meta_bstar": 0,
        "meta_mean_motion_dot": -5.5e-07,
        "meta_mean_motion_ddot": 0,
        "tle_line1": "1 43246U 18029B   25359.98279310 -.00000055  00000+0  00000+0 0  9991",
        "tle_line2": "2 43246  54.3511 306.0337 0004366   3.7555 356.2576  1.86229188 52653"
      },
      "geometry": {
        "type": "Point",
        "coordinates": [
          155.851454112632,
          -34.78093292992606
        ]
      }
    },
    {
      "type": "Feature",
      "properties": {
        "norad_id": 43286,
        "name": "IRNSS-1I",
        "group": "gnss",
        "lat": 10.235994235601343,
        "lon": 95.73370645841628,
        "alt_km": 35871.80652994775,
        "timestamp": "2025-12-26T20:30:46.154461+00:00",
        "meta_object_name": "IRNSS-1I",
        "meta_object_id": "2018-035A",
        "meta_epoch": "2025-12-24T19:28:38.810784",
        "meta_mean_motion": 1.00274895,
        "meta_eccentricity": 0.00219107,
        "meta_inclination": 29.1759,
        "meta_ra_of_asc_node": 76.9122,
        "meta_arg_of_pericenter": 182.7933,
        "meta_mean_anomaly": 181.0586,
        "meta_ephemeris_type": 0,
        "meta_classification_type": "U",
        "meta_norad_cat_id": 43286,
        "meta_element_set_no": 999,
        "meta_rev_at_epoch": 2833,
        "meta_bstar": 0,
        "meta_mean_motion_dot": 9.2e-07,
        "meta_mean_motion_ddot": 0,
        "tle_line1": "1 43286U 18035A   25358.81156031  .00000092  00000+0  00000+0 0  9997",
        "tle_line2": "2 43286  29.1759  76.9122 0021910 182.7933 181.0586  1.00274895 28332"
      },
      "geometry": {
        "type": "Point",
        "coordinates": [
          95.73370645841628,
          10.235994235601343
        ]
      }
    },
    {
      "type": "Feature",
      "properties": {
        "norad_id": 43508,
        "name": "COSMOS 2527 (756)",
        "group": "gnss",
        "lat": -7.7457487993066945,
        "lon": 76.11667585842055,
        "alt_km": 19143.98104713147,
        "timestamp": "2025-12-26T20:30:46.154472+00:00",
        "meta_object_name": "COSMOS 2527 (756)",
        "meta_object_id": "2018-053A",
        "meta_epoch": "2025-12-25T22:15:18.516960",
        "meta_mean_motion": 2.13102285,
        "meta_eccentricity": 0.00091278,
        "meta_inclination": 65.4787,
        "meta_ra_of_asc_node": 79.6912,
        "meta_arg_of_pericenter": 228.9036,
        "meta_mean_anomaly": 131.0649,
        "meta_ephemeris_type": 0,
        "meta_classification_type": "U",
        "meta_norad_cat_id": 43508,
        "meta_element_set_no": 999,
        "meta_rev_at_epoch": 5858,
        "meta_bstar": 0,
        "meta_mean_motion_dot": -3e-08,
        "meta_mean_motion_ddot": 0,
        "tle_line1": "1 43508U 18053A   25359.92729765 -.00000003  00000+0  00000+0 0  9990",
        "tle_line2": "2 43508  65.4787  79.6912 0009127 228.9036 131.0649  2.13102285 58586"
      },
      "geometry": {
        "type": "Point",
        "coordinates": [
          76.11667585842055,
          -7.7457487993066945
        ]
      }
    },
    {
      "type": "Feature",
      "properties": {
        "norad_id": 43539,
        "name": "BEIDOU-2 IGSO-7 (C16)",
        "group": "gnss",
        "lat": -8.423838195426404,
        "lon": 158.61417298931852,
        "alt_km": 35953.079493654994,
        "timestamp": "2025-12-26T20:30:46.154483+00:00",
        "meta_object_name": "BEIDOU-2 IGSO-7 (C16)",
        "meta_object_id": "2018-057A",
        "meta_epoch": "2025-12-23T21:03:51.666912",
        "meta_mean_motion": 1.00254881,
        "meta_eccentricity": 0.00930582,
        "meta_inclination": 55.1784,
        "meta_ra_of_asc_node": 164.5741,
        "meta_arg_of_pericenter": 235.1099,
        "meta_mean_anomaly": 119.1175,
        "meta_ephemeris_type": 0,
        "meta_classification_type": "U",
        "meta_norad_cat_id": 43539,
        "meta_element_set_no": 999,
        "meta_rev_at_epoch": 2736,
        "meta_bstar": 0,
        "meta_mean_motion_dot": -6.1e-07,
        "meta_mean_motion_ddot": 0,
        "tle_line1": "1 43539U 18057A   25357.87768133 -.00000061  00000+0  00000+0 0  9996",
        "tle_line2": "2 43539  55.1784 164.5741 0093058 235.1099 119.1175  1.00254881 27360"
      },
      "geometry": {
        "type": "Point",
        "coordinates": [
          158.61417298931852,
          -8.423838195426404
        ]
      }
    },
    {
      "type": "Feature",
      "properties": {
        "norad_id": 43564,
        "name": "GSAT0221 (GALILEO 25)",
        "group": "gnss",
        "lat": 24.18618638148087,
        "lon": 149.60896422665508,
        "alt_km": 23233.444162497344,
        "timestamp": "2025-12-26T20:30:46.154495+00:00",
        "meta_object_name": "GSAT0221 (GALILEO 25)",
        "meta_object_id": "2018-060A",
        "meta_epoch": "2025-12-24T06:17:56.044608",
        "meta_mean_motion": 1.70475708,
        "meta_eccentricity": 0.00067277,
        "meta_inclination": 57.2252,
        "meta_ra_of_asc_node": 346.5066,
        "meta_arg_of_pericenter": 286.73,
        "meta_mean_anomaly": 73.2039,
        "meta_ephemeris_type": 0,
        "meta_classification_type": "U",
        "meta_norad_cat_id": 43564,
        "meta_element_set_no": 999,
        "meta_rev_at_epoch": 4618,
        "meta_bstar": 0,
        "meta_mean_motion_dot": -6.1e-07,
        "meta_mean_motion_ddot": 0,
        "tle_line1": "1 43564U 18060A   25358.26245422 -.00000061  00000+0  00000+0 0  9993",
        "tle_line2": "2 43564  57.2252 346.5066 0006727 286.7300  73.2039  1.70475708 46187"
      },
      "geometry": {
        "type": "Point",
        "coordinates": [
          149.60896422665508,
          24.18618638148087
        ]
      }
    },
    {
      "type": "Feature",
      "properties": {
        "norad_id": 43565,
        "name": "GSAT0222 (GALILEO 26)",
        "group": "gnss",
        "lat": 13.63666800765235,
        "lon": -4.580683926336077,
        "alt_km": 23226.13787826608,
        "timestamp": "2025-12-26T20:30:46.154505+00:00",
        "meta_object_name": "GSAT0222 (GALILEO 26)",
        "meta_object_id": "2018-060B",
        "meta_epoch": "2025-12-26T05:47:51.912384",
        "meta_mean_motion": 1.7047535,
        "meta_eccentricity": 0.00060253,
        "meta_inclination": 57.2282,
        "meta_ra_of_asc_node": 346.4562,
        "meta_arg_of_pericenter": 267.9285,
        "meta_mean_anomaly": 92.0117,
        "meta_ephemeris_type": 0,
        "meta_classification_type": "U",
        "meta_norad_cat_id": 43565,
        "meta_element_set_no": 999,
        "meta_rev_at_epoch": 4626,
        "meta_bstar": 0,
        "meta_mean_motion_dot": -6e-07,
        "meta_mean_motion_ddot": 0,
        "tle_line1": "1 43565U 18060B   25360.24157306 -.00000060  00000+0  00000+0 0  9997",
        "tle_line2": "2 43565  57.2282 346.4562 0006025 267.9285  92.0117  1.70475350 46263"
      },
      "geometry": {
        "type": "Point",
        "coordinates": [
          -4.580683926336077,
          13.63666800765235
        ]
      }
    },
    {
      "type": "Feature",
      "properties": {
        "norad_id": 43566,
        "name": "GSAT0219 (GALILEO 23)",
        "group": "gnss",
        "lat": -47.03028901098976,
        "lon": -149.8221799402794,
        "alt_km": 23216.309327646486,
        "timestamp": "2025-12-26T20:30:46.154515+00:00",
        "meta_object_name": "GSAT0219 (GALILEO 23)",
        "meta_object_id": "2018-060C",
        "meta_epoch": "2025-12-22T08:33:30.157056",
        "meta_mean_motion": 1.70475755,
        "meta_eccentricity": 0.00058833,
        "meta_inclination": 57.2283,
        "meta_ra_of_asc_node": 346.5626,
        "meta_arg_of_pericenter": 291.1394,
        "meta_mean_anomaly": 68.8055,
        "meta_ephemeris_type": 0,
        "meta_classification_type": "U",
        "meta_norad_cat_id": 43566,
        "meta_element_set_no": 999,
        "meta_rev_at_epoch": 4617,
        "meta_bstar": 0,
        "meta_mean_motion_dot": -6.5e-07,
        "meta_mean_motion_ddot": 0,
        "tle_line1": "1 43566U 18060C   25356.35659904 -.00000065  00000+0  00000+0 0  9991",
        "tle_line2": "2 43566  57.2283 346.5626 0005883 291.1394  68.8055  1.70475755 46179"
      },
      "geometry": {
        "type": "Point",
        "coordinates": [
          -149.8221799402794,
          -47.03028901098976
        ]
      }
    }
  ]
}